{"fetched_at":"2026-07-18T17:29:36.480Z","source":"https://celestrak.org/NORAD/elements/gp.php?GROUP=spire&FORMAT=JSON","constellation":"spire","records":[{"OBJECT_NAME":"LEMUR-1","OBJECT_ID":"2014-033AL","EPOCH":"2026-07-18T05:10:29.131680","CLASSIFICATION_TYPE":"U","MEAN_MOTION":14.85341695,"ECCENTRICITY":0.00474851,"INCLINATION":97.7913,"RA_OF_ASC_NODE":348.3393,"ARG_OF_PERICENTER":337.9146,"MEAN_ANOMALY":22.0022,"EPHEMERIS_TYPE":0,"NORAD_CAT_ID":40044,"ELEMENT_SET_NO":999,"REV_AT_EPOCH":65007,"BSTAR":0.000086804628,"MEAN_MOTION_DOT":0.00000705,"MEAN_MOTION_DDOT":0},{"OBJECT_NAME":"LEMUR-2-GREENBERG","OBJECT_ID":"2017-042N","EPOCH":"2026-07-18T01:13:36.647040","CLASSIFICATION_TYPE":"U","MEAN_MOTION":15.32207983,"ECCENTRICITY":0.00073229,"INCLINATION":97.3835,"RA_OF_ASC_NODE":19.5561,"ARG_OF_PERICENTER":247.3182,"MEAN_ANOMALY":112.7286,"EPHEMERIS_TYPE":0,"NORAD_CAT_ID":42837,"ELEMENT_SET_NO":999,"REV_AT_EPOCH":49311,"BSTAR":0.00031415728,"MEAN_MOTION_DOT":0.00009701,"MEAN_MOTION_DDOT":0},{"OBJECT_NAME":"LEMUR-2-ANDIS","OBJECT_ID":"2017-042P","EPOCH":"2026-07-18T01:43:45.666912","CLASSIFICATION_TYPE":"U","MEAN_MOTION":15.35996922,"ECCENTRICITY":0.00073243,"INCLINATION":97.3688,"RA_OF_ASC_NODE":19.8725,"ARG_OF_PERICENTER":246.368,"MEAN_ANOMALY":113.6795,"EPHEMERIS_TYPE":0,"NORAD_CAT_ID":42838,"ELEMENT_SET_NO":999,"REV_AT_EPOCH":49319,"BSTAR":0.00035542868,"MEAN_MOTION_DOT":0.00012392,"MEAN_MOTION_DDOT":0},{"OBJECT_NAME":"LEMUR-2-MONSON","OBJECT_ID":"2017-042Q","EPOCH":"2026-07-18T01:29:28.268736","CLASSIFICATION_TYPE":"U","MEAN_MOTION":15.28798185,"ECCENTRICITY":0.00054806,"INCLINATION":97.4096,"RA_OF_ASC_NODE":19.4906,"ARG_OF_PERICENTER":232.7356,"MEAN_ANOMALY":127.3385,"EPHEMERIS_TYPE":0,"NORAD_CAT_ID":42839,"ELEMENT_SET_NO":999,"REV_AT_EPOCH":49288,"BSTAR":0.00028213113,"MEAN_MOTION_DOT":0.00007825,"MEAN_MOTION_DDOT":0},{"OBJECT_NAME":"LEMUR-2-FURIAUS","OBJECT_ID":"2017-042R","EPOCH":"2026-07-18T01:34:57.806112","CLASSIFICATION_TYPE":"U","MEAN_MOTION":15.31188015,"ECCENTRICITY":0.0005737,"INCLINATION":97.3783,"RA_OF_ASC_NODE":17.456,"ARG_OF_PERICENTER":317.1429,"MEAN_ANOMALY":42.9364,"EPHEMERIS_TYPE":0,"NORAD_CAT_ID":42840,"ELEMENT_SET_NO":999,"REV_AT_EPOCH":49293,"BSTAR":0.00032216681,"MEAN_MOTION_DOT":0.00009635,"MEAN_MOTION_DDOT":0},{"OBJECT_NAME":"LEMUR-2-PETERG","OBJECT_ID":"2017-042S","EPOCH":"2026-07-18T06:29:02.527296","CLASSIFICATION_TYPE":"U","MEAN_MOTION":15.35097463,"ECCENTRICITY":0.00035192,"INCLINATION":97.3998,"RA_OF_ASC_NODE":24.38,"ARG_OF_PERICENTER":207.0916,"MEAN_ANOMALY":153.0144,"EPHEMERIS_TYPE":0,"NORAD_CAT_ID":42841,"ELEMENT_SET_NO":999,"REV_AT_EPOCH":49320,"BSTAR":0.00032304305,"MEAN_MOTION_DOT":0.00010927,"MEAN_MOTION_DDOT":0},{"OBJECT_NAME":"LEMUR-2-DEMBITZ","OBJECT_ID":"2017-042T","EPOCH":"2026-07-18T00:29:21.068736","CLASSIFICATION_TYPE":"U","MEAN_MOTION":15.31162504,"ECCENTRICITY":0.00051119,"INCLINATION":97.3834,"RA_OF_ASC_NODE":20.4567,"ARG_OF_PERICENTER":261.228,"MEAN_ANOMALY":98.8382,"EPHEMERIS_TYPE":0,"NORAD_CAT_ID":42842,"ELEMENT_SET_NO":999,"REV_AT_EPOCH":49306,"BSTAR":0.00030731886,"MEAN_MOTION_DOT":0.00009179,"MEAN_MOTION_DDOT":0},{"OBJECT_NAME":"LEMUR-2-ZACHARY","OBJECT_ID":"2017-042W","EPOCH":"2026-07-18T06:35:01.489920","CLASSIFICATION_TYPE":"U","MEAN_MOTION":15.52907758,"ECCENTRICITY":0.00027421,"INCLINATION":97.3575,"RA_OF_ASC_NODE":31.6314,"ARG_OF_PERICENTER":230.4547,"MEAN_ANOMALY":129.6464,"EPHEMERIS_TYPE":0,"NORAD_CAT_ID":42845,"ELEMENT_SET_NO":999,"REV_AT_EPOCH":49402,"BSTAR":0.00048660543,"MEAN_MOTION_DOT":0.00030216,"MEAN_MOTION_DDOT":0},{"OBJECT_NAME":"LEMUR-2-AMANDA-SVANTE","OBJECT_ID":"2021-034B","EPOCH":"2026-07-18T04:29:06.754272","CLASSIFICATION_TYPE":"U","MEAN_MOTION":15.36074295,"ECCENTRICITY":0.00047014,"INCLINATION":97.5745,"RA_OF_ASC_NODE":278.33,"ARG_OF_PERICENTER":135.7113,"MEAN_ANOMALY":224.4507,"EPHEMERIS_TYPE":0,"NORAD_CAT_ID":48269,"ELEMENT_SET_NO":999,"REV_AT_EPOCH":28581,"BSTAR":0.00052025878,"MEAN_MOTION_DOT":0.00018224,"MEAN_MOTION_DDOT":0},{"OBJECT_NAME":"LEMUR-2-SPECIAL-K","OBJECT_ID":"2021-034F","EPOCH":"2026-07-18T04:36:33.362784","CLASSIFICATION_TYPE":"U","MEAN_MOTION":15.75793092,"ECCENTRICITY":0.00061284,"INCLINATION":97.5639,"RA_OF_ASC_NODE":288.5518,"ARG_OF_PERICENTER":212.7149,"MEAN_ANOMALY":147.3737,"EPHEMERIS_TYPE":0,"NORAD_CAT_ID":48273,"ELEMENT_SET_NO":999,"REV_AT_EPOCH":28655,"BSTAR":0.0011690989,"MEAN_MOTION_DOT":0.0018292,"MEAN_MOTION_DDOT":0},{"OBJECT_NAME":"LEMUR-2-EMBRIONOVIS","OBJECT_ID":"2023-084AQ","EPOCH":"2026-07-17T21:53:27.068640","CLASSIFICATION_TYPE":"U","MEAN_MOTION":15.38274237,"ECCENTRICITY":0.00085829,"INCLINATION":97.633,"RA_OF_ASC_NODE":344.3137,"ARG_OF_PERICENTER":196.088,"MEAN_ANOMALY":164.0093,"EPHEMERIS_TYPE":0,"NORAD_CAT_ID":56970,"ELEMENT_SET_NO":999,"REV_AT_EPOCH":17240,"BSTAR":0.00021443027,"MEAN_MOTION_DOT":0.00008008,"MEAN_MOTION_DDOT":0},{"OBJECT_NAME":"LEMUR-2-DEVERILL-M-T","OBJECT_ID":"2023-100F","EPOCH":"2026-07-18T02:06:11.423808","CLASSIFICATION_TYPE":"U","MEAN_MOTION":15.41179399,"ECCENTRICITY":0.00047265,"INCLINATION":99.4447,"RA_OF_ASC_NODE":246.8076,"ARG_OF_PERICENTER":284.7623,"MEAN_ANOMALY":75.3093,"EPHEMERIS_TYPE":0,"NORAD_CAT_ID":57391,"ELEMENT_SET_NO":999,"REV_AT_EPOCH":16600,"BSTAR":0.00034880268,"MEAN_MOTION_DOT":0.00014362,"MEAN_MOTION_DDOT":0},{"OBJECT_NAME":"LEMUR-2-BASS","OBJECT_ID":"2023-174D","EPOCH":"2026-07-18T04:43:34.674240","CLASSIFICATION_TYPE":"U","MEAN_MOTION":15.44055518,"ECCENTRICITY":0.00074748,"INCLINATION":97.3841,"RA_OF_ASC_NODE":284.3636,"ARG_OF_PERICENTER":69.1079,"MEAN_ANOMALY":291.0969,"EPHEMERIS_TYPE":0,"NORAD_CAT_ID":58259,"ELEMENT_SET_NO":999,"REV_AT_EPOCH":15014,"BSTAR":0.00021531383,"MEAN_MOTION_DOT":0.00009752,"MEAN_MOTION_DDOT":0},{"OBJECT_NAME":"LEMUR-2-JK0903EM1407","OBJECT_ID":"2023-174CJ","EPOCH":"2026-07-17T19:47:56.756544","CLASSIFICATION_TYPE":"U","MEAN_MOTION":15.53156673,"ECCENTRICITY":0.00033659,"INCLINATION":97.3921,"RA_OF_ASC_NODE":290.1925,"ARG_OF_PERICENTER":23.2594,"MEAN_ANOMALY":336.8811,"EPHEMERIS_TYPE":0,"NORAD_CAT_ID":58336,"ELEMENT_SET_NO":999,"REV_AT_EPOCH":15048,"BSTAR":0.00025490398,"MEAN_MOTION_DOT":0.00015897,"MEAN_MOTION_DDOT":0},{"OBJECT_NAME":"LEMUR-2-MJR092620","OBJECT_ID":"2023-174CN","EPOCH":"2026-07-18T07:16:14.292480","CLASSIFICATION_TYPE":"U","MEAN_MOTION":15.4593219,"ECCENTRICITY":0.00050213,"INCLINATION":97.397,"RA_OF_ASC_NODE":289.9293,"ARG_OF_PERICENTER":19.3257,"MEAN_ANOMALY":340.8181,"EPHEMERIS_TYPE":0,"NORAD_CAT_ID":58340,"ELEMENT_SET_NO":999,"REV_AT_EPOCH":15045,"BSTAR":0.00022077739,"MEAN_MOTION_DOT":0.00010659,"MEAN_MOTION_DDOT":0},{"OBJECT_NAME":"LEMUR-2-NIMBUS2000","OBJECT_ID":"2024-022A","EPOCH":"2026-07-18T03:00:32.009472","CLASSIFICATION_TYPE":"U","MEAN_MOTION":15.4119207,"ECCENTRICITY":0.00084471,"INCLINATION":97.4078,"RA_OF_ASC_NODE":49.537,"ARG_OF_PERICENTER":18.5967,"MEAN_ANOMALY":341.5587,"EPHEMERIS_TYPE":0,"NORAD_CAT_ID":58899,"ELEMENT_SET_NO":999,"REV_AT_EPOCH":13703,"BSTAR":0.00031046133,"MEAN_MOTION_DOT":0.00012818,"MEAN_MOTION_DDOT":0}]}
